[{"OBJECT_NAME":"STARLINK-37107","OBJECT_ID":"2026-057A","EPOCH":"2026-04-04T22:00:01.999584","MEAN_MOTION":15.83313916,"ECCENTRICITY":0.00015349,"INCLINATION":97.2826,"RA_OF_ASC_NODE":218.5738,"ARG_OF_PERICENTER":73.8781,"MEAN_ANOMALY":55.4692,"EPHEMERIS_TYPE":0,"CLASSIFICATION_TYPE":"U","NORAD_CAT_ID":68294,"ELEMENT_SET_NO":999,"REV_AT_EPOCH":337,"BSTAR":-0.0075364597,"MEAN_MOTION_DOT":-0.01412596,"MEAN_MOTION_DDOT":0},{"OBJECT_NAME":"STARLINK-37147","OBJECT_ID":"2026-057B","EPOCH":"2026-04-04T22:00:01.999584","MEAN_MOTION":15.8335677,"ECCENTRICITY":0.00014592,"INCLINATION":97.2818,"RA_OF_ASC_NODE":218.5746,"ARG_OF_PERICENTER":80.4278,"MEAN_ANOMALY":53.0821,"EPHEMERIS_TYPE":0,"CLASSIFICATION_TYPE":"U","NORAD_CAT_ID":68295,"ELEMENT_SET_NO":999,"REV_AT_EPOCH":336,"BSTAR":-0.0075225213,"MEAN_MOTION_DOT":-0.01412764,"MEAN_MOTION_DDOT":0},{"OBJECT_NAME":"STARLINK-37142","OBJECT_ID":"2026-057C","EPOCH":"2026-04-04T22:00:01.999584","MEAN_MOTION":15.83408874,"ECCENTRICITY":0.00016594,"INCLINATION":97.2813,"RA_OF_ASC_NODE":218.5796,"ARG_OF_PERICENTER":78.1399,"MEAN_ANOMALY":68.218,"EPHEMERIS_TYPE":0,"CLASSIFICATION_TYPE":"U","NORAD_CAT_ID":68296,"ELEMENT_SET_NO":999,"REV_AT_EPOCH":325,"BSTAR":-0.0078092783,"MEAN_MOTION_DOT":-0.01492782,"MEAN_MOTION_DDOT":0},{"OBJECT_NAME":"STARLINK-37115","OBJECT_ID":"2026-057D","EPOCH":"2026-04-04T22:00:01.999584","MEAN_MOTION":15.8336932,"ECCENTRICITY":0.00015576,"INCLINATION":97.281,"RA_OF_ASC_NODE":218.5768,"ARG_OF_PERICENTER":83.9421,"MEAN_ANOMALY":58.1995,"EPHEMERIS_TYPE":0,"CLASSIFICATION_TYPE":"U","NORAD_CAT_ID":68297,"ELEMENT_SET_NO":999,"REV_AT_EPOCH":325,"BSTAR":-0.0076932127,"MEAN_MOTION_DOT":-0.01470592,"MEAN_MOTION_DDOT":0},{"OBJECT_NAME":"STARLINK-36355","OBJECT_ID":"2026-057E","EPOCH":"2026-04-04T22:00:01.999584","MEAN_MOTION":15.83380429,"ECCENTRICITY":0.00013267,"INCLINATION":97.2816,"RA_OF_ASC_NODE":218.576,"ARG_OF_PERICENTER":83.3865,"MEAN_ANOMALY":54.3428,"EPHEMERIS_TYPE":0,"CLASSIFICATION_TYPE":"U","NORAD_CAT_ID":68298,"ELEMENT_SET_NO":999,"REV_AT_EPOCH":352,"BSTAR":-0.0074910959,"MEAN_MOTION_DOT":-0.01408911,"MEAN_MOTION_DDOT":0},{"OBJECT_NAME":"STARLINK-37118","OBJECT_ID":"2026-057F","EPOCH":"2026-04-04T22:00:01.999584","MEAN_MOTION":15.83416184,"ECCENTRICITY":0.00016594,"INCLINATION":97.2804,"RA_OF_ASC_NODE":218.5825,"ARG_OF_PERICENTER":76.3981,"MEAN_ANOMALY":78.645,"EPHEMERIS_TYPE":0,"CLASSIFICATION_TYPE":"U","NORAD_CAT_ID":68299,"ELEMENT_SET_NO":999,"REV_AT_EPOCH":336,"BSTAR":-0.0082543586,"MEAN_MOTION_DOT":-0.01567997,"MEAN_MOTION_DDOT":0},{"OBJECT_NAME":"STARLINK-36875","OBJECT_ID":"2026-057G","EPOCH":"2026-04-04T22:00:01.999584","MEAN_MOTION":15.83385941,"ECCENTRICITY":0.00017038,"INCLINATION":97.2809,"RA_OF_ASC_NODE":218.581,"ARG_OF_PERICENTER":76.9045,"MEAN_ANOMALY":73.9213,"EPHEMERIS_TYPE":0,"CLASSIFICATION_TYPE":"U","NORAD_CAT_ID":68300,"ELEMENT_SET_NO":999,"REV_AT_EPOCH":342,"BSTAR":-0.0081860278,"MEAN_MOTION_DOT":-0.01554663,"MEAN_MOTION_DDOT":0},{"OBJECT_NAME":"STARLINK-37099","OBJECT_ID":"2026-057H","EPOCH":"2026-04-04T22:00:01.999584","MEAN_MOTION":15.83334871,"ECCENTRICITY":0.00017347,"INCLINATION":97.28,"RA_OF_ASC_NODE":218.5847,"ARG_OF_PERICENTER":80.1221,"MEAN_ANOMALY":79.468,"EPHEMERIS_TYPE":0,"CLASSIFICATION_TYPE":"U","NORAD_CAT_ID":68301,"ELEMENT_SET_NO":999,"REV_AT_EPOCH":325,"BSTAR":-0.0084348766,"MEAN_MOTION_DOT":-0.01592681,"MEAN_MOTION_DDOT":0},{"OBJECT_NAME":"STARLINK-37007","OBJECT_ID":"2026-057J","EPOCH":"2026-04-04T22:00:01.999584","MEAN_MOTION":15.83159583,"ECCENTRICITY":0.00016288,"INCLINATION":97.2793,"RA_OF_ASC_NODE":218.5877,"ARG_OF_PERICENTER":88.0897,"MEAN_ANOMALY":80.5372,"EPHEMERIS_TYPE":0,"CLASSIFICATION_TYPE":"U","NORAD_CAT_ID":68302,"ELEMENT_SET_NO":999,"REV_AT_EPOCH":347,"BSTAR":-0.0086189784,"MEAN_MOTION_DOT":-0.01611187,"MEAN_MOTION_DDOT":0},{"OBJECT_NAME":"STARLINK-36300","OBJECT_ID":"2026-057K","EPOCH":"2026-04-04T22:00:01.999584","MEAN_MOTION":15.83212989,"ECCENTRICITY":0.00016531,"INCLINATION":97.2795,"RA_OF_ASC_NODE":218.5859,"ARG_OF_PERICENTER":87.0418,"MEAN_ANOMALY":77.1579,"EPHEMERIS_TYPE":0,"CLASSIFICATION_TYPE":"U","NORAD_CAT_ID":68303,"ELEMENT_SET_NO":999,"REV_AT_EPOCH":352,"BSTAR":-0.0085326809,"MEAN_MOTION_DOT":-0.01600638,"MEAN_MOTION_DDOT":0},{"OBJECT_NAME":"STARLINK-36849","OBJECT_ID":"2026-057L","EPOCH":"2026-04-04T22:00:01.999584","MEAN_MOTION":15.83182755,"ECCENTRICITY":0.00017099,"INCLINATION":97.2791,"RA_OF_ASC_NODE":218.5898,"ARG_OF_PERICENTER":80.0299,"MEAN_ANOMALY":92.8229,"EPHEMERIS_TYPE":0,"CLASSIFICATION_TYPE":"U","NORAD_CAT_ID":68304,"ELEMENT_SET_NO":999,"REV_AT_EPOCH":342,"BSTAR":-0.0086469679,"MEAN_MOTION_DOT":-0.01617375,"MEAN_MOTION_DDOT":0},{"OBJECT_NAME":"STARLINK-36277","OBJECT_ID":"2026-057M","EPOCH":"2026-04-04T22:00:01.999584","MEAN_MOTION":15.83137845,"ECCENTRICITY":0.00016539,"INCLINATION":97.2781,"RA_OF_ASC_NODE":218.5925,"ARG_OF_PERICENTER":88.5963,"MEAN_ANOMALY":92.9471,"EPHEMERIS_TYPE":0,"CLASSIFICATION_TYPE":"U","NORAD_CAT_ID":68305,"ELEMENT_SET_NO":999,"REV_AT_EPOCH":358,"BSTAR":-0.0087695171,"MEAN_MOTION_DOT":-0.01634257,"MEAN_MOTION_DDOT":0},{"OBJECT_NAME":"STARLINK-36307","OBJECT_ID":"2026-057N","EPOCH":"2026-04-04T22:00:01.999584","MEAN_MOTION":15.83216962,"ECCENTRICITY":0.0001735,"INCLINATION":97.279,"RA_OF_ASC_NODE":218.5917,"ARG_OF_PERICENTER":77.0075,"MEAN_ANOMALY":100.0495,"EPHEMERIS_TYPE":0,"CLASSIFICATION_TYPE":"U","NORAD_CAT_ID":68306,"ELEMENT_SET_NO":999,"REV_AT_EPOCH":352,"BSTAR":-0.008672586,"MEAN_MOTION_DOT":-0.01623874,"MEAN_MOTION_DDOT":0},{"OBJECT_NAME":"STARLINK-36264","OBJECT_ID":"2026-057P","EPOCH":"2026-04-04T22:00:01.999584","MEAN_MOTION":15.83032952,"ECCENTRICITY":0.00017755,"INCLINATION":97.2782,"RA_OF_ASC_NODE":218.5951,"ARG_OF_PERICENTER":83.6038,"MEAN_ANOMALY":102.4813,"EPHEMERIS_TYPE":0,"CLASSIFICATION_TYPE":"U","NORAD_CAT_ID":68307,"ELEMENT_SET_NO":999,"REV_AT_EPOCH":358,"BSTAR":-0.0089135419,"MEAN_MOTION_DOT":-0.01650548,"MEAN_MOTION_DDOT":0},{"OBJECT_NAME":"STARLINK-37138","OBJECT_ID":"2026-057Q","EPOCH":"2026-04-04T22:00:01.999584","MEAN_MOTION":15.83096765,"ECCENTRICITY":0.00017969,"INCLINATION":97.2774,"RA_OF_ASC_NODE":218.5954,"ARG_OF_PERICENTER":80.5309,"MEAN_ANOMALY":109.6809,"EPHEMERIS_TYPE":0,"CLASSIFICATION_TYPE":"U","NORAD_CAT_ID":68308,"ELEMENT_SET_NO":999,"REV_AT_EPOCH":325,"BSTAR":-0.0088721276,"MEAN_MOTION_DOT":-0.01648223,"MEAN_MOTION_DDOT":0},{"OBJECT_NAME":"STARLINK-37149","OBJECT_ID":"2026-057R","EPOCH":"2026-04-04T22:00:01.999584","MEAN_MOTION":15.83098379,"ECCENTRICITY":0.00017935,"INCLINATION":97.2768,"RA_OF_ASC_NODE":218.5968,"ARG_OF_PERICENTER":81.9576,"MEAN_ANOMALY":112.5424,"EPHEMERIS_TYPE":0,"CLASSIFICATION_TYPE":"U","NORAD_CAT_ID":68309,"ELEMENT_SET_NO":999,"REV_AT_EPOCH":336,"BSTAR":-0.0089379706,"MEAN_MOTION_DOT":-0.01658956,"MEAN_MOTION_DDOT":0}]
